[{"OBJECT_NAME":"PADRE","OBJECT_ID":"2025-135AH","EPOCH":"2026-03-09T21:49:33.195936","MEAN_MOTION":14.92114701,"ECCENTRICITY":0.00013867,"INCLINATION":97.759,"RA_OF_ASC_NODE":183.9613,"ARG_OF_PERICENTER":187.9932,"MEAN_ANOMALY":172.1266,"EPHEMERIS_TYPE":0,"CLASSIFICATION_TYPE":"U","NORAD_CAT_ID":64559,"ELEMENT_SET_NO":999,"REV_AT_EPOCH":3904,"BSTAR":0.00028627052,"MEAN_MOTION_DOT":2.854e-5,"MEAN_MOTION_DDOT":0},{"OBJECT_NAME":"UOSAT 12 (UO-36)","OBJECT_ID":"1999-021A","EPOCH":"2026-03-09T22:06:39.543264","MEAN_MOTION":14.84155011,"ECCENTRICITY":0.00358391,"INCLINATION":64.5566,"RA_OF_ASC_NODE":7.9653,"ARG_OF_PERICENTER":233.978,"MEAN_ANOMALY":125.8004,"EPHEMERIS_TYPE":0,"CLASSIFICATION_TYPE":"U","NORAD_CAT_ID":25693,"ELEMENT_SET_NO":999,"REV_AT_EPOCH":45211,"BSTAR":0.00010593765,"MEAN_MOTION_DOT":7.46e-6,"MEAN_MOTION_DDOT":0}]
